SB KEPS @ AMSAT  $ORB10177.N
2Line Orbital Elements 10177.AMSAT

HR AMSAT ORBITAL ELEMENTS FOR AMATEUR SATELLITES IN NASA FORMAT
FROM WA5QGD FORT WORTH,TX June 26, 2010
Send Subscribe/unsubscribe to KEPS at http://www.amsat.org/mailman/listinfo/keps
BID: ORB10177.N

DECODE 2-LINE ELSETS WITH THE FOLLOWING KEY:
1 AAAAAU 00  0  0 BBBBB.BBBBBBBB  .CCCCCCCC  00000-0  00000-0 0  DDDZ
2 AAAAA EEE.EEEE FFF.FFFF GGGGGGG HHH.HHHH III.IIII JJ.JJJJJJJJKKKKKZ
KEY: A-CATALOGNUM B-EPOCHTIME C-DECAY D-ELSETNUM E-INCLINATION F-RAAN
G-ECCENTRICITY H-ARGPERIGEE I-MNANOM J-MNMOTION K-ORBITNUM Z-CHECKSUM

TO ALL RADIO AMATEURS BT

VO-52
1 28650U 05017B   10176.64188221  .00000101  00000-0  19273-4 0  5366
2 28650 097.6922 229.7469 0025887 248.0228 111.8282 14.81762480277946
FO-29
1 24278U 96046B   10176.90548086  .00000059  00000-0  93016-4 0  3387
2 24278 098.5142 004.8313 0351407 101.2054 262.8804 13.52951551684281
AO-07
1 07530U 74089B   10177.61978581 -.00000027  00000-0  10000-3 0  8111
2 07530 101.3998 193.1193 0011577 256.3809 103.5976 12.53578630629636
RS-22
1 27939U 03042A   10177.62783171  .00000089  00000-0  25994-4 0  3084
2 27939 097.8928 042.7139 0014285 034.0624 326.1484 14.63428727360337
HO-68
1 36122U 09072B   10177.67315392 -.00000045  00000-0  00000 0 0  4325
2 36122 100.4690 238.0071 0007171 317.1300 042.9258 13.16280989 25462
SO-67
1 35870U 09049F   10177.73028628  .00000475  00000-0  24493-4 0  8550
2 35870 097.3315 226.6139 0004731 072.6482 067.7355 15.20931343 42905
SO-33
1 25509U 98061B   10177.83496445  .00000225  00000-0  34212-4 0  7414
2 25509 031.4322 093.9523 0353535 014.2044 346.8248 14.28311109609435
AO-51
1 28375U 04025K   10176.48316237  .00000012  00000-0  16042-4 0 07094
2 28375 098.0623 169.5063 0085130 071.8642 289.1796 14.40688769314700
CP3
1 31129U 07012N   10176.62130615 -.00000056  00000-0 -22180-5 0 06117
2 31129 097.9397 215.7422 0102215 206.4355 153.1628 14.52269050169085
UO-11
1 14781U 84021B   10176.67732049 -.00000051  00000-0  32260-6 0  2752
2 14781 098.0557 228.4450 0008483 205.6021 154.4688 14.79810835413067
SOHLA-1
1 33496U 09002E   10176.80849277 -.00000093  00000-0 -75120-5 0  1374
2 33496 098.0584 285.7717 0006755 166.9238 193.2158 14.69499246 76147
GO-32
1 25397U 98043D   10176.81878739  .00000042  00000-0  36699-4 0 02194
2 25397 098.3113 183.7929 0000554 179.9762 180.1403 14.23180351621270
CO-55
1 27844U 03031E   10176.89848089  .00000053  00000-0  44573-4 0 08771
2 27844 098.7084 185.7464 0010175 140.2926 219.8997 14.20714603362325
IO-26
1 22826U 93061D   10177.24753950  .00000014  00000-0  22271-4 0  2996
2 22826 098.4787 125.5605 0008045 235.3441 124.6990 14.29556998873454
AO-27
1 22825U 93061C   10177.39370133 -.00000082  00000-0 -15410-4 0  5637
2 22825 098.4855 125.1060 0007665 238.4085 121.6355 14.29300207873367
LO-19
1 20442U 90005G   10177.40925588 -.00000003  00000-0  14113-4 0  8406
2 20442 098.2925 140.7169 0012649 130.9807 229.2493 14.32096271 66870
CO-57
1 27848U 03031J   10177.49284162  .00000038  00000-0  37833-4 0  8277
2 27848 098.7128 185.4271 0010001 143.7407 216.4482 14.20506495362365
NO-44
1 26931U 01043C   10177.50881681  .00000223  00000-0  11943-3 0  4928
2 26931 067.0506 179.9572 0005424 263.6012 096.4482 14.29602400456086
SO-50
1 27607U 02058C   10177.52275814 -.00000017  00000-0  18933-4 0  2087
2 27607 064.5594 328.1610 0035268 071.9132 288.5780 14.71550032403750
CO-65
1 32785U 08021C   10177.68670609  .00000383  00000-0  55349-4 0  7176
2 32785 097.8972 242.4829 0013796 253.1340 106.8350 14.81671067116893
KKS-1
1 33493U 09002B   10177.71306139  .00000307  00000-0  46504-4 0  6089
2 33493 098.0867 297.2868 0021344 109.2500 251.1033 14.81017440 76890
GENESAT1
1 29655U 06058C   10177.77853357  .00143626  14197-4  32615-3 0  1302
2 29655 040.0181 325.9564 0010543 020.7654 339.3591 15.96649382201520
AO-16
1 20439U 90005D   10177.83228967  .00000022  00000-0  23745-4 0  9295
2 20439 098.3320 135.3587 0011528 133.9610 226.2529 14.31865316 66768
NOAA-11
1 19531U 88089A   10176.30178035  .00000134  00000-0  91570-4 0 01237
2 19531 098.7698 265.1882 0012082 122.0249 238.2125 14.14929205122288
FENGYUN1
1 25730U 99025A   10176.47650484 -.00000483  00000-0 -25755-3 0 00754
2 25730 098.7857 141.2161 0020883 247.1287 112.7679 14.08184507572859
OKEAN-0
1 25860U 99039A   10176.56416955  .00000021  00000-0  10495-4 0 00309
2 25860 097.8316 148.9766 0001839 070.8276 289.3126 14.73645702588134
NOAA-10
1 16969U 86073A   10176.63464985 -.00000117  00000-0 -29817-4 0 01113
2 16969 098.6558 205.5228 0012146 182.9932 177.1193 14.27419054236788
NOAA-15
1 25338U 98030A   10176.65098870  .00000071  00000-0  49074-4 0 04248
2 25338 098.6178 163.4229 0011569 053.7875 306.4369 14.24835812629956
NOAA-16
1 26536U 00055A   10176.65537468  .00000153  00000-0  10812-3 0 09018
2 26536 099.1697 194.3239 0009825 317.0139 043.0244 14.12565811503025
NOAA-12
1 21263U 91032A   10176.84331986  .00000056  00000-0  42575-4 0 06115
2 21263 098.7646 190.0009 0012983 137.7206 222.4971 14.25640421993630
NOAA-14
1 23455U 94089A   10176.84690232 -.00000068  00000-0 -12429-4 0 01033
2 23455 098.8782 257.5303 0008913 206.6585 153.4138 14.13787886798722
NOAA-17
1 27453U 02032A   10176.84851709 -.00000005  00000-0  15817-4 0 09009
2 27453 098.4311 226.9442 0012777 110.8536 249.3999 14.24167897415932
NOAA-19
1 33591U 09005A   10176.86818258 -.00000140  00000-0 -53501-4 0 05818
2 33591 098.7879 118.8046 0013086 265.4137 094.5519 14.11062206071133
NOAA-18
1 28654U 05018A   10176.87831524 -.00000147  00000-0 -56410-4 0 03844
2 28654 098.9498 123.1174 0014947 032.3916 327.8154 14.11365990262663
RESURS
1 25394U 98043A   10177.48099292  .00000001  00000-0  18018-4 0  5377
2 25394 098.3039 195.0541 0001140 149.6058 210.5188 14.24203961621670
OKEAN-4
1 23317U 94066A   10177.49898353  .00000169  00000-0  17901-4 0  2683
2 23317 082.5399 345.1657 0021077 207.6212 152.3917 14.82829060847830
MET-2/21
1 22782U 93055A   10177.61999970  .00000077  00000-0  55780-4 0  8137
2 22782 082.5482 244.9574 0022883 020.5059 339.7022 13.83645906849384
MET-3/5
1 21655U 91056A   10177.67629945  .00000051  00000-0  10000-3 0  8476
2 21655 082.5588 301.9292 0012784 330.7808 029.2562 13.17025357906920
DRAGNSAT
1 35690U 09038B   10076.22711312  .05715194  12509-4  31481-3 0  3162
2 35690 051.6170 315.4586 0004999 310.9891 057.3269 16.42150010 36561
POLLUX
1 35693U 09038E   10087.99866888  .23496735  12787-4  17715-3 0  3529
2 35693 051.6099 254.5746 0006270 294.4866 097.5899 16.52338462 38395
CO-66
1 32791U 08021J   10176.22694704  .00000479  00000-0  67507-4 0 06998
2 32791 097.8947 240.8879 0014955 258.0188 101.9350 14.81677436116646
CO-58
1 28895U 05043F   10176.68584118  .00000132  00000-0  37025-4 0  6163
2 28895 098.0131 060.8821 0016727 257.6383 102.2967 14.59903806248228
MAST
1 31126U 07012K   10176.75754232  .00000172  00000-0  49244-4 0 08999
2 31126 097.9373 218.3276 0094226 198.7093 161.0621 14.53596464169305
DO-64
1 32789U 08021G   10176.82183942  .00000829  00000-0  11057-3 0 07187
2 32789 097.9018 242.0734 0014329 255.6671 104.2984 14.82186697116781
CP6
1 35004U 09028D   10176.94805716  .00006904  00000-0  14015-3 0 03285
2 35004 040.4598 153.0009 0019563 091.0811 269.2268 15.46379686062071
AEROCUB3
1 35005U 09028E   10176.97217937  .00020983  00000-0  34352-3 0 03729
2 35005 040.4679 149.9678 0016444 107.6024 252.6653 15.51791114062112
TACSAT-3
1 35001U 09028A   10176.98455324  .00003097  00000-0  76354-4 0 03209
2 35001 040.4539 161.2591 0020474 067.5897 292.7094 15.41858355061993
AAUSAT2
1 32788U 08021F   10177.15135082  .00000500  00000-0  69595-4 0  7003
2 32788 097.8948 241.9163 0014066 258.1388 101.8274 14.82038616116834
PHARMSAT
1 35002U 09028B   10177.32383088  .00002642  00000-0  64777-4 0  3027
2 35002 040.4672 157.1895 0022768 075.0759 285.2577 15.42381862 62069
HAWKSAT1
1 35003U 09028C   10177.34357173  .00005924  00000-0  12444-3 0  3249
2 35003 040.4581 151.6076 0020651 090.3837 269.9344 15.45535497 62132
FALCON
1 30776U 07006E   10177.57672451  .00000372  00000-0  29633-4 0  8571
2 30776 035.4348 347.2854 0001900 300.5397 059.5131 15.03695846181474
RS-30
1 32953U 08025A   10177.62708940  .00000010  00000-0  00000 0 0  8189
2 32953 082.5007 023.8086 0019940 081.3177 279.0156 12.43005735 94916
METEOR-M
1 35865U 09049A   10177.70481521  .00000176  00000-0  10000-3 0  4187
2 35865 098.7574 231.4355 0002677 357.2670 002.8441 14.21830720 40072
RS-38
1 35869U 09049E   10177.74564758  .00000177  00000-0  10000-3 0  4270
2 35869 098.7561 231.5095 0004588 349.2765 010.8248 14.21983928 40087
CAPE1
1 31130U 07012P   10177.78210900  .00000419  00000-0  10707-3 0  9195
2 31130 097.9366 216.6896 0102259 203.3080 156.3474 14.52191973169056
COMPASS
1 32787U 08021E   10177.82438518  .00000617  00000-0  84579-4 0  7082
2 32787 097.8940 242.4498 0014638 253.5367 106.4268 14.81896459116923
CASTOR
1 35694U 09038F   10177.92826428  .00090168  15068-4  13870-3 0  5057
2 35694 051.6320 147.8910 0001953 030.4851 329.6297 16.04207036 52627
HUBBLE
1 20580U 90037B   10178.02137213  .00000322  00000-0  11817-4 0  5906
2 20580 028.4684 175.6594 0003136 303.6438 056.3912 15.00989994906236
ISS
1 25544U 98067A   10178.03972080  .00006310  00000-0  51734-4 0  3949
2 25544 051.6470 180.1781 0009824 012.9677 028.9811 15.72002369665029
/EX
